OBJECT_NAME,OBJECT_ID,EPOCH,MEAN_MOTION,ECCENTRICITY,INCLINATION,RA_OF_ASC_NODE,ARG_OF_PERICENTER,MEAN_ANOMALY,EPHEMERIS_TYPE,CLASSIFICATION_TYPE,NORAD_CAT_ID,ELEMENT_SET_NO,REV_AT_EPOCH,BSTAR,MEAN_MOTION_DOT,MEAN_MOTION_DDOT
CHUANGXIN 1-02 (CX-1-02),2008-056B,2026-06-13T07:25:54.408864,14.30152688,.00147855,98.6140,190.6151,147.3078,212.9023,0,U,33434,999,91806,.61113599E-4,.114E-5,0
STARS (KUKAI),2009-002G,2026-06-12T19:17:25.039392,14.95723199,.00085446,98.1547,110.9334,171.7737,188.3625,0,U,33498,999,93782,.42871805E-3,.4716E-4,0
KKS-1 (KISEKI),2009-002H,2026-06-13T06:37:33.553920,14.83114847,.00067283,98.1193,86.6563,310.9846,49.0784,0,U,33499,999,93561,.15832649E-3,.1235E-4,0
NOAA 19,2009-005A,2026-06-13T07:09:44.744256,14.13473748,.00144479,98.9520,235.1704,44.9509,315.2830,0,U,33591,999,89393,.40812099E-4,.32E-6,0
METEOR-M 1,2009-049A,2026-06-13T03:19:10.093728,14.23156015,.00018325,98.7385,126.6411,351.7691,8.3457,0,U,35865,999,86867,.43879263E-4,.55E-6,0
OCEANSAT-2,2009-051A,2026-06-13T06:25:40.378944,13.99664810,.00149126,98.2333,151.5102,247.8964,112.0619,0,U,35931,999,87878,.202862E-5,-.35E-6,0
SWISSCUBE,2009-051B,2026-06-13T04:48:38.212128,14.62474657,.00057298,98.4039,72.0192,217.2214,142.8591,0,U,35932,999,88857,.18887986E-3,.907E-5,0
BEESAT-1,2009-051C,2026-06-13T06:37:48.676512,14.61714735,.0004035,98.3969,71.7400,232.2675,127.8160,0,U,35933,999,88861,.16281462E-3,.762E-5,0
ITUPSAT1,2009-051E,2026-06-13T06:19:45.784704,14.60435247,.00061478,98.4054,70.9235,248.6693,111.3850,0,U,35935,999,88816,.15114418E-3,.683E-5,0
DMSP 5D-3 F18 (USA 210),2009-057A,2026-06-13T06:02:26.284704,14.14894783,.00098465,98.9036,145.0294,262.0226,97.9830,0,U,35951,999,85903,.14509011E-3,.236E-5,0
PROBA-2,2009-059B,2026-06-13T06:02:08.706624,14.54860849,.00120566,98.2449,347.6589,295.5831,64.4120,0,U,36037,999,88095,.5142034E-4,.175E-5,0
YAOGAN-7,2009-069A,2026-06-13T05:31:04.683648,14.78006200,.00257771,98.0077,50.1213,53.9806,306.3788,0,U,36110,999,88904,.72557238E-4,.473E-5,0
XIWANG-1 (HOPE-1),2009-072B,2026-06-13T05:10:56.097984,13.16441312,.00068177,100.4020,118.1111,241.4197,118.6231,0,U,36122,999,79248,.11529713E-2,.396E-5,0
RADUGA-1M 2,2010-002A,2026-06-13T06:09:06.485184,0.98968434,.00057296,3.6104,78.9054,264.9521,337.2172,0,U,36358,999,4998,0,-.223E-5,0
COSMOS 2463,2010-017A,2026-06-13T07:46:49.332576,13.71665412,.00371728,82.9605,252.5437,139.2526,282.7173,0,U,36519,999,80740,.23029033E-4,.36E-6,0
CARTOSAT-2B,2010-035A,2026-06-13T06:42:27.905760,14.78654814,.00108481,97.9960,214.8540,196.7959,163.2894,0,U,36795,999,85927,.19203969E-4,.88E-6,0
AISSAT 1,2010-035C,2026-06-13T06:25:08.821344,14.97346493,.00107344,98.0931,63.3732,74.4836,285.7569,0,U,36797,999,86363,.25910127E-3,.2948E-4,0
TISAT 1,2010-035E,2026-06-12T19:19:32.632320,15.31550354,.00007698,98.0703,109.9656,172.9333,187.1918,0,U,36799,999,86703,.74650795E-3,.22701E-3,0
YAOGAN-10,2010-038A,2026-06-13T07:41:41.849664,14.85340784,.00017313,97.8981,187.7559,89.3596,32.6818,0,U,36834,999,85663,.28786163E-3,.2422E-4,0
SHIJIAN-6 04B (SJ-6 04B),2010-051B,2026-06-13T06:51:15.594624,14.99305402,.00085079,97.8682,169.6557,327.1747,32.8946,0,U,37180,999,85509,.10120456E-3,.1175E-4,0
FENGYUN 3B,2010-059A,2026-06-13T06:53:21.544224,14.14841023,.00216966,98.9626,210.2850,195.2851,298.3334,0,U,37214,999,80687,.18963133E-3,.322E-5,0
COSMO-SKYMED 4,2010-060A,2026-06-13T07:48:52.420608,14.82148957,.00013897,97.8885,347.9816,82.6881,277.4490,0,U,37216,999,84399,.31373769E-4,.198E-5,0
O/OREOS (USA 219),2010-062C,2026-06-13T04:16:15.356064,14.93728493,.00124397,71.9712,89.4205,71.8416,288.4108,0,U,37224,999,11604,.21804239E-3,.225E-4,0
ELEKTRO-L 1 (GOMS 2),2011-001A,2026-06-13T05:47:08.786688,1.00155644,.00040342,9.6767,54.5451,31.0707,152.8638,0,U,37344,999,5644,0,-.45E-6,0
RESOURCESAT-2,2011-015A,2026-06-13T06:55:13.092672,14.21605612,.00101438,98.7644,231.7570,268.0499,91.9516,0,U,37387,999,78562,.49893946E-4,.65E-6,0
YOUTHSAT,2011-015B,2026-06-12T22:42:26.167680,14.25628735,.00145002,98.3681,138.1915,359.6366,65.8808,0,U,37388,999,78703,.8880619E-4,.169E-5,0
APRIZESAT 6,2011-044F,2026-06-13T07:05:30.297984,14.76910502,.00444842,98.2369,74.7156,98.1107,18.4461,0,U,37793,999,79657,.10353445E-3,.684E-5,0
JUGNU,2011-058B,2026-06-13T03:39:07.107840,14.13775702,.00186016,19.9620,332.9425,31.8631,131.2795,0,U,37839,999,75845,.70847304E-4,.403E-5,0
SRMSAT,2011-058D,2026-06-12T12:04:18.622848,14.11574639,.00118933,19.9716,87.8194,152.1713,3.7826,0,U,37841,999,75715,.5300922E-4,.363E-5,0
